NORAD_CAT_ID,OBJECT_NAME,OBJECT_TYPE,EPOCH,MEAN_MOTION,ECCENTRICITY,INCLINATION,RA_OF_ASC_NODE,ARG_OF_PERICENTER,MEAN_ANOMALY,BSTAR,MEAN_MOTION_DOT,MEAN_MOTION_DDOT,TLE_LINE0,TLE_LINE1,TLE_LINE2,SEMIMAJOR_AXIS,PERIOD,APOGEE,PERIGEE,DECAYED
55744.0,STARLINK-5601,PAYLOAD,2023-11-10 19:34:04,14.98333483,0.0002696,70.0026,227.4324,265.8906,94.1945,0.00015423,1.748e-05,0.0,0 STARLINK-5601,1 55744U 23028D   23314.81532422  .00001748  00000-0  15423-3 0  9998,2 55744  70.0026 227.4324 0002696 265.8906  94.1945 14.98333483 38734,6950.182,96.107,573.921,570.173,0.0
55744.0,STARLINK-5601,PAYLOAD,2023-11-10 21:10:11,14.98338904,0.0002605,70.0023,227.2647,263.0029,97.0833,-0.00013882,-1.749e-05,0.0,0 STARLINK-5601,1 55744U 23028D   23314.88208074 -.00001749  00000-0 -13882-3 0  9998,2 55744  70.0023 227.2647 0002605 263.0029  97.0833 14.98338904 38745,6950.165,96.106,573.841,570.22,0.0
55744.0,STARLINK-5601,PAYLOAD,2023-11-11 11:35:24,14.98338808,0.0003049,70.001,225.7494,276.0651,84.016,-0.00023662,-2.916e-05,0.0,0 STARLINK-5601,1 55744U 23028D   23315.48291944 -.00002916  00000-0 -23662-3 0  9997,2 55744  70.0010 225.7494 0003049 276.0651  84.0160 14.98338808 38834,6950.166,96.106,574.15,569.912,0.0
55744.0,STARLINK-5601,PAYLOAD,2023-11-11 19:36:05,14.98323587,0.000278,70.0021,224.9078,266.7617,93.3224,4.555e-06,-3.9e-07,0.0,0 STARLINK-5601,1 55744U 23028D   23315.81672874 -.00000039  00000-0  45550-5 0  9994,2 55744  70.0021 224.9078 0002780 266.7617  93.3224 14.98323587 38881,6950.213,96.107,574.01,570.146,0.0
55744.0,STARLINK-5601,PAYLOAD,2023-11-11 21:12:13,14.98326951,0.0002757,70.0013,224.739,271.6735,88.4108,3.2519e-05,2.95e-06,0.0,0 STARLINK-5601,1 55744U 23028D   23315.88348727  .00000295  00000-0  32519-4 0  9991,2 55744  70.0013 224.7390 0002757 271.6735  88.4108 14.98326951 38892,6950.202,96.107,573.983,570.151,0.0
55744.0,STARLINK-5601,PAYLOAD,2023-11-12 03:36:45,14.98331328,0.000293,69.9995,224.0654,269.7607,90.3216,0.00012799,1.435e-05,0.0,0 STARLINK-5601,1 55744U 23028D   23316.15052586  .00001435  00000-0  12799-3 0  9991,2 55744  69.9995 224.0654 0002930 269.7607  90.3216 14.98331328 38934,6950.189,96.107,574.09,570.017,0.0
55744.0,STARLINK-5601,PAYLOAD,2023-11-12 21:14:14,14.98326627,0.0002766,69.9996,222.2134,267.8932,92.191,0.00010931,1.211e-05,0.0,0 STARLINK-5601,1 55744U 23028D   23316.88489099  .00001211  00000-0  10931-3 0  9992,2 55744  69.9996 222.2134 0002766 267.8932  92.1910 14.98326627 39045,6950.203,96.107,573.991,570.146,0.0
55744.0,STARLINK-5601,PAYLOAD,2023-11-13 03:38:46,14.98329156,0.0002806,69.9999,221.541,267.1704,92.9134,0.00012509,1.4e-05,0.0,0 STARLINK-5601,1 55744U 23028D   23317.15192948  .00001400  00000-0  12509-3 0  9990,2 55744  69.9999 221.5410 0002806 267.1704  92.9134 14.98329156 39082,6950.196,96.107,574.011,570.11,0.0
55744.0,STARLINK-5601,PAYLOAD,2023-11-13 11:39:27,14.98324087,0.0002518,70.0,220.699,274.1109,85.9762,0.0003059,3.558e-05,0.0,0 STARLINK-5601,1 55744U 23028D   23317.48573284  .00003558  00000-0  30590-3 0  9998,2 55744  70.0000 220.6990 0002518 274.1109  85.9762 14.98324087 39131,6950.211,96.107,573.826,570.326,0.0
55744.0,STARLINK-5601,PAYLOAD,2023-11-14 03:40:47,14.98338275,0.0002756,70.0,219.0159,265.8199,94.2645,0.00023545,2.718e-05,0.0,0 STARLINK-5601,1 55744U 23028D   23318.15332212  .00002718  00000-0  23545-3 0  9996,2 55744  70.0000 219.0159 0002756 265.8199  94.2645 14.98338275 39238,6950.167,96.106,573.948,570.117,0.0
55744.0,STARLINK-5601,PAYLOAD,2023-11-15 03:42:49,14.98305423,0.0002588,70.0005,216.4919,271.0502,89.0361,0.00064495,7.606e-05,0.0,0 STARLINK-5601,1 55744U 23028D   23319.15473781  .00007606  00000-0  64495-3 0  9994,2 55744  70.0005 216.4919 0002588 271.0502  89.0361 14.98305423 39380,6950.269,96.109,573.933,570.335,0.0
55744.0,STARLINK-5601,PAYLOAD,2023-11-16 00:32:32,14.98364791,0.0002874,70.0005,214.3039,255.0955,104.9886,-0.00042641,-5.182e-05,0.0,0 STARLINK-5601,1 55744U 23028D   23320.02259543 -.00005182  00000-0 -42641-3 0  9998,2 55744  70.0005 214.3039 0002874 255.0955 104.9886 14.98364791 39519,6950.085,96.105,573.948,569.953,0.0
55744.0,STARLINK-5601,PAYLOAD,2023-11-16 16:33:53,14.98329188,0.0002773,69.9985,212.6211,267.8449,92.2392,3.9192e-05,3.75e-06,0.0,0 STARLINK-5601,1 55744U 23028D   23320.69020663  .00000375  00000-0  39192-4 0  9995,2 55744  69.9985 212.6211 0002773 267.8449  92.2392 14.98329188 39616,6950.195,96.107,573.988,570.133,0.0
55744.0,STARLINK-5601,PAYLOAD,2023-11-16 22:58:26,14.98329543,0.0002796,69.9985,211.9476,269.0152,91.0686,3.4554e-05,3.19e-06,0.0,0 STARLINK-5601,1 55744U 23028D   23320.95724644  .00000319  00000-0  34554-4 0  9999,2 55744  69.9985 211.9476 0002796 269.0152  91.0686 14.98329543 39653,6950.194,96.107,574.003,570.116,0.0
55744.0,STARLINK-5601,PAYLOAD,2023-11-17 10:11:22,14.98331352,0.0002995,69.9997,210.7688,270.2424,89.8392,2.4158e-05,1.95e-06,0.0,0 STARLINK-5601,1 55744U 23028D   23321.42456457  .00000195  00000-0  24158-4 0  9997,2 55744  69.9997 210.7688 0002995 270.2424  89.8392 14.98331352 39723,6950.189,96.107,574.135,569.972,0.0
55744.0,STARLINK-5601,PAYLOAD,2023-11-17 16:35:54,14.98370518,0.0002798,70.0,210.0955,270.8707,89.2132,-0.00060301,-7.288e-05,0.0,0 STARLINK-5601,1 55744U 23028D   23321.69160674 -.00007288  00000-0 -60301-3 0  9990,2 55744  70.0000 210.0955 0002798 270.8707  89.2132 14.98370518 39769,6950.068,96.104,573.877,569.988,0.0
55744.0,STARLINK-5601,PAYLOAD,2023-11-17 23:00:26,14.98331013,0.0002731,69.999,209.4223,267.4025,92.6822,0.00010397,1.148e-05,0.0,0 STARLINK-5601,1 55744U 23028D   23321.95864312  .00001148  00000-0  10397-3 0  9996,2 55744  69.9990 209.4223 0002731 267.4025  92.6822 14.98331013 39802,6950.19,96.107,573.953,570.157,0.0
55744.0,STARLINK-5601,PAYLOAD,2023-11-18 10:13:22,14.98362911,0.0002783,69.9993,208.244,278.4045,81.6798,-0.00051064,-6.186e-05,0.0,0 STARLINK-5601,1 55744U 23028D   23322.42595322 -.00006186  00000-0 -51064-3 0  9996,2 55744  69.9993 208.2440 0002783 278.4045  81.6798 14.98362911 39872,6950.091,96.105,573.89,570.022,0.0
55744.0,STARLINK-5601,PAYLOAD,2023-11-18 16:37:55,14.98330638,0.0002957,69.9992,207.5709,268.0757,92.0063,0.00010443,1.153e-05,0.0,0 STARLINK-5601,1 55744U 23028D   23322.69300322  .00001153  00000-0  10443-3 0  9992,2 55744  69.9992 207.5709 0002957 268.0757  92.0063 14.98330638 39916,6950.191,96.107,574.111,570.001,0.0
55744.0,STARLINK-5601,PAYLOAD,2023-11-18 23:02:27,14.98332028,0.0002842,69.999,206.8978,268.526,91.5574,0.00010463,1.156e-05,0.0,0 STARLINK-5601,1 55744U 23028D   23322.96004170  .00001156  00000-0  10463-3 0  9999,2 55744  69.9990 206.8978 0002842 268.5260  91.5574 14.98332028 39951,6950.187,96.107,574.027,570.076,0.0
55744.0,STARLINK-5601,PAYLOAD,2023-11-19 10:15:23,14.98353753,0.0002856,69.999,205.7194,279.5349,80.5487,-0.00036607,-4.461e-05,0.0,0 STARLINK-5601,1 55744U 23028D   23323.42735680 -.00004461  00000-0 -36607-3 0  9990,2 55744  69.9990 205.7194 0002856 279.5349  80.5487 14.98353753 40023,6950.119,96.105,573.969,569.999,0.0
55744.0,STARLINK-5601,PAYLOAD,2023-11-19 19:52:12,14.98332894,0.0002876,69.9991,204.7095,268.7861,91.2969,4.2958e-05,4.2e-06,0.0,0 STARLINK-5601,1 55744U 23028D   23323.82792200  .00000420  00000-0  42958-4 0  9991,2 55744  69.9991 204.7095 0002876 268.7861  91.2969 14.98332894 40087,6950.184,96.107,574.048,570.05,0.0
55744.0,STARLINK-5601,PAYLOAD,2023-11-19 23:04:28,14.98333474,0.0002816,69.9994,204.3728,268.4238,91.6598,4.3511e-05,4.26e-06,0.0,0 STARLINK-5601,1 55744U 23028D   23323.96144090  .00000426  00000-0  43511-4 0  9996,2 55744  69.9994 204.3728 0002816 268.4238  91.6598 14.98333474 40108,6950.182,96.107,574.004,570.09,0.0
55744.0,STARLINK-5601,PAYLOAD,2023-11-20 00:40:36,14.98332586,0.000284,69.9994,204.2046,268.6575,91.4259,3.2377e-05,2.93e-06,0.0,0 STARLINK-5601,1 55744U 23028D   23324.02820160  .00000293  00000-0  32377-4 0  9993,2 55744  69.9994 204.2046 0002840 268.6575  91.4259 14.98332586 40119,6950.185,96.107,574.024,570.076,0.0
55744.0,STARLINK-5601,PAYLOAD,2023-11-20 19:54:13,14.98335307,0.000285,69.9992,202.1848,269.5921,90.4912,5.7768e-05,5.96e-06,0.0,0 STARLINK-5601,1 55744U 23028D   23324.82931807  .00000596  00000-0  57768-4 0  9999,2 55744  69.9992 202.1848 0002850 269.5921  90.4912 14.98335307 40232,6950.176,96.107,574.022,570.061,0.0
55744.0,STARLINK-5601,PAYLOAD,2023-11-20 21:30:21,14.98334631,0.0002854,69.9992,202.0165,269.5958,90.4874,4.8786e-05,4.89e-06,0.0,0 STARLINK-5601,1 55744U 23028D   23324.89607827  .00000489  00000-0  48786-4 0  9999,2 55744  69.9992 202.0165 0002854 269.5958  90.4874 14.98334631 40244,6950.179,96.107,574.027,570.06,0.0
55744.0,STARLINK-5601,PAYLOAD,2023-11-21 08:43:16,14.98361538,0.0002929,69.9993,200.8383,267.2591,92.8233,-0.00048756,-5.91e-05,0.0,0 STARLINK-5601,1 55744U 23028D   23325.36338946 -.00005910  00000-0 -48756-3 0  9997,2 55744  69.9993 200.8383 0002929 267.2591  92.8233 14.98361538 40313,6950.095,96.105,573.996,569.925,0.0
55744.0,STARLINK-5601,PAYLOAD,2023-11-21 18:20:06,14.98330515,0.0002813,69.9992,199.8286,269.9114,90.1723,2.3339e-05,1.86e-06,0.0,0 STARLINK-5601,1 55744U 23028D   23325.76396048  .00000186  00000-0  23339-4 0  9997,2 55744  69.9992 199.8286 0002813 269.9114  90.1723 14.98330515 40375,6950.191,96.107,574.011,570.101,0.0
55744.0,STARLINK-5601,PAYLOAD,2023-11-21 21:32:22,14.98329702,0.0002904,69.9994,199.4921,267.4871,92.5955,8.7435e-05,9.5e-06,0.0,0 STARLINK-5601,1 55744U 23028D   23325.89747947  .00000950  00000-0  87435-4 0  9995,2 55744  69.9994 199.4921 0002904 267.4871  92.5955 14.98329702 40394,6950.194,96.107,574.077,570.04,0.0
55744.0,STARLINK-5601,PAYLOAD,2023-11-22 02:20:46,14.98335754,0.0002756,69.9991,198.9876,267.3447,92.7396,8.3801e-05,9.07e-06,0.0,0 STARLINK-5601,1 55744U 23028D   23326.09775542  .00000907  00000-0  83801-4 0  9995,2 55744  69.9991 198.9876 0002756 267.3447  92.7396 14.98335754 40426,6950.175,96.107,573.956,570.125,0.0
